[{"OBJECT_NAME":"FENGYUN 1C DEB","OBJECT_ID":"1999-025AAR","EPOCH":"2026-03-04T12:10:07.374720","MEAN_MOTION":13.82403883,"ECCENTRICITY":0.01872777,"INCLINATION":98.8938,"RA_OF_ASC_NODE":56.2603,"ARG_OF_PERICENTER":325.127,"MEAN_ANOMALY":155.6447,"EPHEMERIS_TYPE":0,"CLASSIFICATION_TYPE":"U","NORAD_CAT_ID":30330,"ELEMENT_SET_NO":999,"REV_AT_EPOCH":95787,"BSTAR":0.0023363014,"MEAN_MOTION_DOT":2.848e-5,"MEAN_MOTION_DDOT":0},{"OBJECT_NAME":"FENGYUN 1C DEB","OBJECT_ID":"1999-025AAS","EPOCH":"2026-03-04T13:20:08.039040","MEAN_MOTION":13.97951821,"ECCENTRICITY":0.0097571,"INCLINATION":98.9454,"RA_OF_ASC_NODE":101.1044,"ARG_OF_PERICENTER":141.4259,"MEAN_ANOMALY":22.0167,"EPHEMERIS_TYPE":0,"CLASSIFICATION_TYPE":"U","NORAD_CAT_ID":30331,"ELEMENT_SET_NO":999,"REV_AT_EPOCH":97262,"BSTAR":0.00075086,"MEAN_MOTION_DOT":1.067e-5,"MEAN_MOTION_DDOT":0},{"OBJECT_NAME":"FENGYUN 1C DEB","OBJECT_ID":"1999-025AAT","EPOCH":"2026-03-04T11:43:08.375232","MEAN_MOTION":13.76821437,"ECCENTRICITY":0.01764767,"INCLINATION":99.7275,"RA_OF_ASC_NODE":41.7879,"ARG_OF_PERICENTER":250.6464,"MEAN_ANOMALY":231.5103,"EPHEMERIS_TYPE":0,"CLASSIFICATION_TYPE":"U","NORAD_CAT_ID":30332,"ELEMENT_SET_NO":999,"REV_AT_EPOCH":95840,"BSTAR":0.00048297093,"MEAN_MOTION_DOT":4.85e-6,"MEAN_MOTION_DDOT":0},{"OBJECT_NAME":"FENGYUN 1C DEB","OBJECT_ID":"1999-025AAV","EPOCH":"2026-03-04T19:12:01.167264","MEAN_MOTION":13.92810589,"ECCENTRICITY":0.0147144,"INCLINATION":99.0158,"RA_OF_ASC_NODE":166.2631,"ARG_OF_PERICENTER":119.5815,"MEAN_ANOMALY":39.1567,"EPHEMERIS_TYPE":0,"CLASSIFICATION_TYPE":"U","NORAD_CAT_ID":30334,"ELEMENT_SET_NO":999,"REV_AT_EPOCH":96363,"BSTAR":0.002252,"MEAN_MOTION_DOT":3.147e-5,"MEAN_MOTION_DDOT":0},{"OBJECT_NAME":"FENGYUN 1C DEB","OBJECT_ID":"1999-025AAW","EPOCH":"2026-03-03T22:22:58.850112","MEAN_MOTION":14.01392501,"ECCENTRICITY":0.0131678,"INCLINATION":98.9069,"RA_OF_ASC_NODE":57.2723,"ARG_OF_PERICENTER":265.6887,"MEAN_ANOMALY":122.013,"EPHEMERIS_TYPE":0,"CLASSIFICATION_TYPE":"U","NORAD_CAT_ID":30335,"ELEMENT_SET_NO":999,"REV_AT_EPOCH":97728,"BSTAR":0.00013538,"MEAN_MOTION_DOT":1.76e-6,"MEAN_MOTION_DDOT":0},{"OBJECT_NAME":"FENGYUN 1C DEB","OBJECT_ID":"1999-025AAX","EPOCH":"2026-03-04T01:42:32.878368","MEAN_MOTION":14.19443486,"ECCENTRICITY":0.00444595,"INCLINATION":98.595,"RA_OF_ASC_NODE":86.6352,"ARG_OF_PERICENTER":131.6133,"MEAN_ANOMALY":301.4985,"EPHEMERIS_TYPE":0,"CLASSIFICATION_TYPE":"U","NORAD_CAT_ID":30336,"ELEMENT_SET_NO":999,"REV_AT_EPOCH":98756,"BSTAR":0.00040228263,"MEAN_MOTION_DOT":8.13e-6,"MEAN_MOTION_DDOT":0},{"OBJECT_NAME":"FENGYUN 1C DEB","OBJECT_ID":"1999-025AAZ","EPOCH":"2026-03-04T04:12:17.795808","MEAN_MOTION":14.48511956,"ECCENTRICITY":0.02671537,"INCLINATION":98.446,"RA_OF_ASC_NODE":138.009,"ARG_OF_PERICENTER":306.3462,"MEAN_ANOMALY":78.8734,"EPHEMERIS_TYPE":0,"CLASSIFICATION_TYPE":"U","NORAD_CAT_ID":30338,"ELEMENT_SET_NO":999,"REV_AT_EPOCH":99323,"BSTAR":0.0010475001,"MEAN_MOTION_DOT":6.137e-5,"MEAN_MOTION_DDOT":0},{"OBJECT_NAME":"FENGYUN 1C DEB","OBJECT_ID":"1999-025ABA","EPOCH":"2026-03-04T19:32:40.248672","MEAN_MOTION":14.39669479,"ECCENTRICITY":0.0025697,"INCLINATION":98.9702,"RA_OF_ASC_NODE":178.9777,"ARG_OF_PERICENTER":193.3791,"MEAN_ANOMALY":329.3491,"EPHEMERIS_TYPE":0,"CLASSIFICATION_TYPE":"U","NORAD_CAT_ID":30339,"ELEMENT_SET_NO":999,"REV_AT_EPOCH":98607,"BSTAR":0.0035061,"MEAN_MOTION_DOT":0.0001098,"MEAN_MOTION_DDOT":0},{"OBJECT_NAME":"FENGYUN 1C DEB","OBJECT_ID":"1999-025ABB","EPOCH":"2026-03-04T02:38:23.923104","MEAN_MOTION":14.04637689,"ECCENTRICITY":0.01444472,"INCLINATION":98.986,"RA_OF_ASC_NODE":124.1118,"ARG_OF_PERICENTER":268.2719,"MEAN_ANOMALY":120.4626,"EPHEMERIS_TYPE":0,"CLASSIFICATION_TYPE":"U","NORAD_CAT_ID":30340,"ELEMENT_SET_NO":999,"REV_AT_EPOCH":97923,"BSTAR":0.00020049177,"MEAN_MOTION_DOT":3.06e-6,"MEAN_MOTION_DDOT":0},{"OBJECT_NAME":"FENGYUN 1C DEB","OBJECT_ID":"1999-025ABC","EPOCH":"2026-03-04T15:41:57.245856","MEAN_MOTION":14.35610114,"ECCENTRICITY":0.0047272,"INCLINATION":99.2187,"RA_OF_ASC_NODE":322.1945,"ARG_OF_PERICENTER":182.4078,"MEAN_ANOMALY":207.9666,"EPHEMERIS_TYPE":0,"CLASSIFICATION_TYPE":"U","NORAD_CAT_ID":30341,"ELEMENT_SET_NO":999,"REV_AT_EPOCH":98256,"BSTAR":0.0025554,"MEAN_MOTION_DOT":7.419e-5,"MEAN_MOTION_DDOT":0},{"OBJECT_NAME":"FENGYUN 1C DEB","OBJECT_ID":"1999-025ABD","EPOCH":"2026-03-04T11:04:32.850048","MEAN_MOTION":13.80162348,"ECCENTRICITY":0.01675291,"INCLINATION":100.2002,"RA_OF_ASC_NODE":254.287,"ARG_OF_PERICENTER":272.619,"MEAN_ANOMALY":115.4452,"EPHEMERIS_TYPE":0,"CLASSIFICATION_TYPE":"U","NORAD_CAT_ID":30342,"ELEMENT_SET_NO":999,"REV_AT_EPOCH":96016,"BSTAR":0.00071125499,"MEAN_MOTION_DOT":7.71e-6,"MEAN_MOTION_DDOT":0},{"OBJECT_NAME":"FENGYUN 1C DEB","OBJECT_ID":"1999-025ABF","EPOCH":"2026-03-04T05:29:59.055072","MEAN_MOTION":14.53596841,"ECCENTRICITY":0.0009298,"INCLINATION":98.8125,"RA_OF_ASC_NODE":154.4086,"ARG_OF_PERICENTER":212.424,"MEAN_ANOMALY":202.3593,"EPHEMERIS_TYPE":0,"CLASSIFICATION_TYPE":"U","NORAD_CAT_ID":30344,"ELEMENT_SET_NO":999,"REV_AT_EPOCH":99260,"BSTAR":0.0039138179,"MEAN_MOTION_DOT":0.00016354,"MEAN_MOTION_DDOT":0},{"OBJECT_NAME":"FENGYUN 1C DEB","OBJECT_ID":"1999-025ABG","EPOCH":"2026-03-04T15:46:51.837024","MEAN_MOTION":14.42869879,"ECCENTRICITY":0.0014243,"INCLINATION":98.9126,"RA_OF_ASC_NODE":131.7017,"ARG_OF_PERICENTER":7.1955,"MEAN_ANOMALY":352.9435,"EPHEMERIS_TYPE":0,"CLASSIFICATION_TYPE":"U","NORAD_CAT_ID":30345,"ELEMENT_SET_NO":999,"REV_AT_EPOCH":98954,"BSTAR":0.002357,"MEAN_MOTION_DOT":7.841e-5,"MEAN_MOTION_DDOT":0},{"OBJECT_NAME":"FENGYUN 1C DEB","OBJECT_ID":"1999-025ABH","EPOCH":"2026-03-04T06:13:22.388160","MEAN_MOTION":14.35044607,"ECCENTRICITY":0.00577529,"INCLINATION":98.8035,"RA_OF_ASC_NODE":166.5096,"ARG_OF_PERICENTER":144.6219,"MEAN_ANOMALY":243.222,"EPHEMERIS_TYPE":0,"CLASSIFICATION_TYPE":"U","NORAD_CAT_ID":30346,"ELEMENT_SET_NO":999,"REV_AT_EPOCH":98582,"BSTAR":0.003372102,"MEAN_MOTION_DOT":9.763e-5,"MEAN_MOTION_DDOT":0},{"OBJECT_NAME":"FENGYUN 1C DEB","OBJECT_ID":"1999-025ABJ","EPOCH":"2026-03-04T11:07:23.198880","MEAN_MOTION":13.92820269,"ECCENTRICITY":0.01503736,"INCLINATION":98.3827,"RA_OF_ASC_NODE":244.6587,"ARG_OF_PERICENTER":165.8009,"MEAN_ANOMALY":223.9987,"EPHEMERIS_TYPE":0,"CLASSIFICATION_TYPE":"U","NORAD_CAT_ID":30347,"ELEMENT_SET_NO":999,"REV_AT_EPOCH":97098,"BSTAR":0.00018125208,"MEAN_MOTION_DOT":2.2e-6,"MEAN_MOTION_DDOT":0},{"OBJECT_NAME":"FENGYUN 1C DEB","OBJECT_ID":"1999-025ABK","EPOCH":"2026-03-04T18:54:13.190688","MEAN_MOTION":14.36099414,"ECCENTRICITY":0.0020691,"INCLINATION":98.858,"RA_OF_ASC_NODE":165.7703,"ARG_OF_PERICENTER":135.6593,"MEAN_ANOMALY":15.5944,"EPHEMERIS_TYPE":0,"CLASSIFICATION_TYPE":"U","NORAD_CAT_ID":30348,"ELEMENT_SET_NO":999,"REV_AT_EPOCH":98711,"BSTAR":0.0023569,"MEAN_MOTION_DOT":6.838e-5,"MEAN_MOTION_DDOT":0},{"OBJECT_NAME":"FENGYUN 1C DEB","OBJECT_ID":"1999-025ABL","EPOCH":"2026-03-03T19:59:26.181888","MEAN_MOTION":14.1174092,"ECCENTRICITY":0.00871777,"INCLINATION":98.5912,"RA_OF_ASC_NODE":26.7914,"ARG_OF_PERICENTER":139.7195,"MEAN_ANOMALY":251.2173,"EPHEMERIS_TYPE":0,"CLASSIFICATION_TYPE":"U","NORAD_CAT_ID":30349,"ELEMENT_SET_NO":999,"REV_AT_EPOCH":97375,"BSTAR":0.0020620805,"MEAN_MOTION_DOT":3.854e-5,"MEAN_MOTION_DDOT":0},{"OBJECT_NAME":"FENGYUN 1C DEB","OBJECT_ID":"1999-025ABM","EPOCH":"2026-03-03T22:48:14.109120","MEAN_MOTION":13.83034675,"ECCENTRICITY":0.0219616,"INCLINATION":98.1006,"RA_OF_ASC_NODE":235.083,"ARG_OF_PERICENTER":84.956,"MEAN_ANOMALY":66.7682,"EPHEMERIS_TYPE":0,"CLASSIFICATION_TYPE":"U","NORAD_CAT_ID":30350,"ELEMENT_SET_NO":999,"REV_AT_EPOCH":96104,"BSTAR":0.00087682,"MEAN_MOTION_DOT":1.121e-5,"MEAN_MOTION_DDOT":0},{"OBJECT_NAME":"FENGYUN 1C DEB","OBJECT_ID":"1999-025ABP","EPOCH":"2026-03-04T19:08:48.110784","MEAN_MOTION":14.07650616,"ECCENTRICITY":0.002959,"INCLINATION":98.7586,"RA_OF_ASC_NODE":87.4148,"ARG_OF_PERICENTER":87.159,"MEAN_ANOMALY":323.5213,"EPHEMERIS_TYPE":0,"CLASSIFICATION_TYPE":"U","NORAD_CAT_ID":30352,"ELEMENT_SET_NO":999,"REV_AT_EPOCH":98065,"BSTAR":0.00029048,"MEAN_MOTION_DOT":4.5e-6,"MEAN_MOTION_DDOT":0},{"OBJECT_NAME":"FENGYUN 1C DEB","OBJECT_ID":"1999-025ABS","EPOCH":"2026-03-04T12:24:59.606784","MEAN_MOTION":14.19077642,"ECCENTRICITY":0.00547972,"INCLINATION":98.5909,"RA_OF_ASC_NODE":70.3362,"ARG_OF_PERICENTER":73.4043,"MEAN_ANOMALY":77.8532,"EPHEMERIS_TYPE":0,"CLASSIFICATION_TYPE":"U","NORAD_CAT_ID":30355,"ELEMENT_SET_NO":999,"REV_AT_EPOCH":98510,"BSTAR":0.00096118078,"MEAN_MOTION_DOT":1.997e-5,"MEAN_MOTION_DDOT":0},{"OBJECT_NAME":"FENGYUN 1C DEB","OBJECT_ID":"1999-025ABT","EPOCH":"2026-03-04T12:44:35.388960","MEAN_MOTION":14.13275015,"ECCENTRICITY":0.0053525,"INCLINATION":98.6875,"RA_OF_ASC_NODE":61.3429,"ARG_OF_PERICENTER":56.3896,"MEAN_ANOMALY":62.0175,"EPHEMERIS_TYPE":0,"CLASSIFICATION_TYPE":"U","NORAD_CAT_ID":30356,"ELEMENT_SET_NO":999,"REV_AT_EPOCH":98176,"BSTAR":0.0009411,"MEAN_MOTION_DOT":1.746e-5,"MEAN_MOTION_DDOT":0},{"OBJECT_NAME":"FENGYUN 1C DEB","OBJECT_ID":"1999-025ABU","EPOCH":"2026-03-04T12:45:43.291584","MEAN_MOTION":14.05307545,"ECCENTRICITY":0.0050477,"INCLINATION":98.7979,"RA_OF_ASC_NODE":93.3889,"ARG_OF_PERICENTER":99.8933,"MEAN_ANOMALY":55.1796,"EPHEMERIS_TYPE":0,"CLASSIFICATION_TYPE":"U","NORAD_CAT_ID":30357,"ELEMENT_SET_NO":999,"REV_AT_EPOCH":97955,"BSTAR":0.00031488697,"MEAN_MOTION_DOT":4.73e-6,"MEAN_MOTION_DDOT":0},{"OBJECT_NAME":"FENGYUN 1C DEB","OBJECT_ID":"1999-025ABV","EPOCH":"2026-03-04T12:18:34.095168","MEAN_MOTION":14.21264931,"ECCENTRICITY":0.00819276,"INCLINATION":98.5566,"RA_OF_ASC_NODE":255.0778,"ARG_OF_PERICENTER":322.1318,"MEAN_ANOMALY":63.6909,"EPHEMERIS_TYPE":0,"CLASSIFICATION_TYPE":"U","NORAD_CAT_ID":30358,"ELEMENT_SET_NO":999,"REV_AT_EPOCH":98079,"BSTAR":0.0018053343,"MEAN_MOTION_DOT":4.028e-5,"MEAN_MOTION_DDOT":0}]
